HST                     
1 20580U 90037B   20357.15072579  .00000526  00000-0  20928-4 0  9995
2 20580  28.4685 158.1257 0002587 316.5496 207.0123 15.09515727484312
POLAR                   
1 23802U 96013A   20356.84166179  .00000162  00000-0  00000-0 0  9991
2 23802  78.7069 247.4837 6151213 277.0929  21.1502  1.29846271118847
SWAS                    
1 25560U 98071A   20357.47082105  .00000336  00000-0  40006-4 0  9993
2 25560  69.8989 270.5611 0005376  38.3162 321.8375 14.93972471197109
CXO                     
1 25867U 99040B   20359.56728408  .00000449  00000-0  00000-0 0  9996
2 25867  58.9669 261.5546 8043883 226.4829 359.9150  0.37801878  9776
XMM-NEWTON              
1 25989U 99066A   20359.01715270 -.00000254  00000-0  00000-0 0  9997
2 25989  71.0196 316.1364 6841287  91.8203   0.2030  0.50133646 12974
TERRA                   
1 25994U 99068A   20358.15946155  .00000080  00000-0  27752-4 0  9990
2 25994  98.1965  69.6456 0001204  98.4107 318.1124 14.57114936117797
CLUSTER II-FM7 (SAMBA)  
1 26410U 00041A   20359.32511141  .00000559  00000-0  00000+0 0  9993
2 26410 132.3225 343.1111 4637861 188.0221 359.5433  0.44218993 23180
CLUSTER II-FM6 (SALSA)  
1 26411U 00041B   20359.39396840  .00000632  00000-0  00000-0 0  9991
2 26411 132.6570 344.6319 6036282 193.3091 359.5075  0.44220848 11461
CLUSTER II-FM5 (RUMBA)  
1 26463U 00045A   20359.39149448  .00000669  00000-0  00000+0 0  9991
2 26463 136.2982 344.4562 5618568 193.3016 359.5549  0.44220669 23765
CLUSTER II-FM8 (TANGO)  
1 26464U 00045B   20359.32476815  .00000559  00000-0  00000+0 0  9994
2 26464 132.3257 343.1055 4636076 188.0076 359.5903  0.44219822 59101
ODIN                    
1 26702U 01007A   20357.61928269  .00000770  00000-0  53745-4 0  9997
2 26702  97.5461  11.3596 0010598 352.1385   7.9675 15.08233929 85184
TIMED                   
1 26998U 01055B   20357.48725678  .00000198  00000-0  25531-4 0  9997
2 26998  74.0727 278.8601 0002419 281.4026  78.6883 14.88250471 32414
RHESSI                  
1 27370U 02004A   20357.75885609  .00004730  00000-0  14545-3 0  9996
2 27370  38.0324 106.4372 0010743  71.4543 288.7394 15.33772183 43258
INTEGRAL                
1 27540U 02048A   20353.02383066  .00000428  00000-0  00000+0 0  9996
2 27540  59.0418  98.9218 8994748 296.3743   1.9920  0.37565348 19087
CORIOLIS                
1 27640U 03001A   20357.48242209  .00000001  00000-0  21208-4 0  9999
2 27640  98.7249   4.0344 0013600 212.7873 303.4746 14.19056165930103
SORCE                   
1 27651U 03004A   20358.09235005  .00000216  00000-0  36467-4 0  9999
2 27651  39.9970 357.9920 0023341 265.8276  93.9845 14.89206513972357
MOST                    
1 27843U 03031D   20357.46484251  .00000000  00000-0  20339-4 0  9993
2 27843  98.7099   2.0210 0008935 271.7373  88.2780 14.20624981906294
SCISAT 1                
1 27858U 03036A   20357.25075146  .00000096  00000-0  18526-4 0  9990
2 27858  73.9311 174.3318 0008490 330.3030  29.7661 14.77319579935388
SWIFT                   
1 28485U 04047A   20357.08272423  .00000990  00000-0  37047-4 0  9990
2 28485  20.5555 151.2388 0010901 270.8651  89.0534 15.04800469881765
FORMOSAT-3 FM6          
1 29047U 06011A   20357.46593564 -.00000036  00000-0  22011-5 0  9990
2 29047  71.9792  86.2393 0048181  97.7897 262.8714 14.28770508768170
FORMOSAT-3 FM1          
1 29048U 06011B   20357.41891377  .00000100  00000-0  55646-4 0  9999
2 29048  71.9665 357.0234 0041771  54.1440 306.3564 14.28740289770647
FORMOSAT-3 FM5          
1 29049U 06011C   20357.68974640  .00000126  00000-0  65735-4 0  9992
2 29049  72.0184 169.1895 0033240  80.1136 280.3751 14.28818284766481
FORMOSAT-3 FM3          
1 29050U 06011D   20357.42430483  .00000251  00000-0  62899-4 0  9995
2 29050  72.0161 296.6025 0050485 340.6309  19.2923 14.58993610783743
FORMOSAT-3 FM4          
1 29051U 06011E   20357.61511421  .00000073  00000-0  44298-4 0  9994
2 29051  72.0061  71.0359 0069818 318.2137  41.3679 14.28855228769060
FORMOSAT-3 FM2          
1 29052U 06011F   20357.81126436  .00000119  00000-0  62790-4 0  9993
2 29052  72.0331 145.4016 0039133  37.1642 323.2192 14.28960574767423
CLOUDSAT                
1 29107U 06016A   20357.46498098  .00000126  00000-0  34368-4 0  9994
2 29107  98.2561 304.2967 0001599 111.4026 248.7346 14.62285218779806
CALIPSO                 
1 29108U 06016B   20357.45397327  .00000205  00000-0  49925-4 0  9990
2 29108  98.2542 304.0545 0001189  77.6287 282.5047 14.62482334779793
HINODE (SOLAR-B)        
1 29479U 06041A   20358.05721132  .00000104  00000-0  28257-4 0  9994
2 29479  98.1549   8.3413 0018025 132.4880 227.7850 14.65111205761517
SJ-6C                   
1 29505U 06046A   20358.21340308  .00000988  00000-0  95660-4 0  9991
2 29505  97.8097  11.2239 0006029 116.1320 244.0516 14.95009392771810
SJ-6D                   
1 29506U 06046B   20358.06717868  .00000621  00000-0  64363-4 0  9994
2 29506  97.8301  11.2600 0001922 170.6567 189.4690 14.93561386771321
AGILE                   
1 31135U 07013A   20357.09972524  .00003372  00000-0  67258-4 0  9996
2 31135   2.4663 166.2467 0011975 231.5592 128.3387 15.32910580393492
AIM                     
1 31304U 07015A   20357.76497423  .00001591  00000-0  91618-4 0  9998
2 31304  97.8848 247.3394 0006620  76.7100 283.4869 15.13979189749175
FGRST (GLAST)           
1 33053U 08029A   20357.41320011  .00000678  00000-0  22020-4 0  9993
2 33053  25.5823 260.3116 0012412  24.6025 335.5101 15.11431620691726
WISE                    
1 36119U 09071A   20357.73133519  .00001433  00000-0  51169-4 0  9993
2 36119  97.3071  31.2780 0004232  81.0751 279.0969 15.30478413612617
SDO                     
1 36395U 10005A   20357.63292927 -.00000052  00000-0  00000+0 0  9996
2 36395  30.6502 118.1442 0000395 216.7966 242.7975  1.00270641 39952
CRYOSAT 2               
1 36508U 10013A   20358.16444513  .00000039  00000-0  89260-5 0  9995
2 36508  92.0165 153.3643 0003818 300.5153  59.5677 14.51907241567639
X-SAT                   
1 37389U 11015C   20358.05734978 -.00000040  00000-0  71033-6 0  9994
2 37389  98.4098  45.6634 0015337  97.8423 262.4500 14.24386282503131
GCOM-W1 (SHIZUKU)       
1 38337U 12025A   20357.83378815  .00000087  00000-0  29355-4 0  9997
2 38337  98.2119 295.0661 0002605  88.3567 327.8692 14.57113433457437
NUSTAR                  
1 38358U 12031A   20357.41460603  .00001125  00000-0  43785-4 0  9995
2 38358   6.0280 343.5943 0011191  79.8471 280.2920 14.88415793464035
NEOSSAT                 
1 39089U 13009D   20357.45849432  .00000040  00000-0  29504-4 0  9996
2 39089  98.4504 195.4117 0012424  89.1834 271.0775 14.34537676409508
IRIS                    
1 39197U 13033A   20358.12419978  .00000215  00000-0  36352-4 0  9999
2 39197  97.9589 178.2013 0027227 342.4708  17.5561 14.78794195403982
HISAKI (SPRINT-A)       
1 39253U 13049A   20357.35599327  .00000062  00000-0 -22811-5 0  9997
2 39253  29.7208 319.4540 0136862 344.4391  15.2002 13.55234974359518
CASSIOPE                
1 39265U 13055A   20357.81975157  .00005647  00000-0  15616-3 0  9993
2 39265  80.9665 117.3460 0655243 111.7937 255.4261 14.30909345374701
STSAT-3                 
1 39422U 13066G   20357.36244315  .00000401  00000-0  47004-4 0  9995
2 39422  97.4943  20.5581 0021429 288.9677  70.9232 14.89898060385118
SWARM B                 
1 39451U 13067A   20357.39898195  .00000545  00000-0  22422-4 0  9998
2 39451  87.7554 223.5472 0002142 115.2468 244.8999 15.21876598378545
SWARM A                 
1 39452U 13067B   20357.77277524  .00001960  00000-0  40554-4 0  9996
2 39452  87.3614  62.1401 0003076  76.9649 283.1953 15.45061345398291
SWARM C                 
1 39453U 13067C   20357.77267342  .00001979  00000-0  40951-4 0  9995
2 39453  87.3467  62.7148 0003075  76.8989 283.2612 15.45060312398259
BRITE-CA1 (TORONTO)     
1 40020U 14033L   20358.04956992  .00000132  00000-0  30688-4 0  9994
2 40020  97.7296 175.4960 0087086 189.9311 170.0177 14.66690866348405
OCO 2                   
1 40059U 14035A   20357.47662485  .00000070  00000-0  25689-4 0  9991
2 40059  98.2113 295.4400 0001466  77.1600 282.9762 14.57111502344404
BRITE-PL2 (HEWELIUSZ)   
1 40119U 14049B   20358.18107509  .00000240  00000-0  34820-4 0  9999
2 40119  97.8929  88.5277 0016751 208.2160 151.8148 14.84578137343788
RESURS P2               
1 40360U 14087A   20358.07557008  .00001027  00000-0  33644-4 0  9997
2 40360  97.2391  83.1767 0007761 221.9511 258.8922 15.33877549335223
MMS 1                   
1 40482U 15011A   20347.02271236 -.00000570  00000-0  00000+0 0  9997
2 40482  31.6267 119.0743 8491054  26.5023 357.3613  0.28535818 11728
MMS 2                   
1 40483U 15011B   20354.03394249 -.00000793  00000-0  00000+0 0  9994
2 40483  31.7133 119.0303 8487766  26.7153 357.0870  0.28532956 11727
MMS 3                   
1 40484U 15011C   20349.26880407 -.00000956  00000-0  00000+0 0  9991
2 40484  31.6537 119.0785 8492315  26.5606 228.1198  0.28543162 11706
MMS 4                   
1 40485U 15011D   20344.41666667 -.00000146  00000-0  00000-0 0  9996
2 40485  31.6067 119.1341 8492858  26.3977  89.8071  0.28533920 11708
ASTROSAT                
1 40930U 15052A   20357.57752727  .00000770  00000-0  19010-4 0  9997
2 40930   5.9976  81.3565 0008213  46.3575 313.7233 14.76358748283048
DAMPE                   
1 41173U 15078A   20358.08409032  .00000186  00000-0  10593-4 0  9998
2 41173  97.3375 347.8726 0012582 313.2088 132.3063 15.23940028279125
PISAT                   
1 41784U 16059B   20358.12666184  .00000133  00000-0  34323-4 0  9993
2 41784  97.9945  49.2431 0033246  79.4119 281.0826 14.63570990226507
HXMT (HUIYAN)           
1 42758U 17034A   20358.11927941  .00000288  00000-0  31516-4 0  9991
2 42758  43.0179  80.8842 0008597 137.7168 294.1961 15.09005397194379
FLYING LAPTOP           
1 42831U 17042G   20357.35279370  .00000751  00000-0  80717-4 0  9995
2 42831  97.4936 230.1805 0014768  24.8016 335.3886 14.91212394187293
PICSAT                  
1 43132U 18004X   20358.19757325  .00003119  00000-0  12741-3 0  9995
2 43132  97.4296  68.2433 0010892 107.4836 252.7593 15.25085929163815
ZHANGZHENG-1 (CSES)     
1 43194U 18015C   20358.07619132  .00001693  00000-0  79462-4 0  9994
2 43194  97.4582 120.9924 0013479 161.4572 313.3356 15.20946713160330
ICON                    
1 44628U 19068A   20358.08369516  .00000610  00000-0  39258-4 0  9992
2 44628  26.9892 242.8264 0018888 219.0537 140.8656 14.91816658 65617
SALSAT                  
1 46495U 20068K   20357.54896787  .00000430  00000-0  36211-4 0  9999
2 46495  97.6796 290.2810 0015521 315.8129  44.1854 15.03306130 12752
